SL-8 R/B                
1 21088U 91006B   26101.53904869  .00000111  00000+0  96791-4 0  9997
2 21088  82.9420 145.6203 0021136 305.2502 167.3613 13.77500301768596
OKEAN-3                 
1 21397U 91039A   26101.52561735  .00001838  00000+0  12736-3 0  9999
2 21397  82.5156 305.0222 0013572 214.3960 145.6390 15.05006193869975
COSMOS 2151             
1 21422U 91042A   26101.83344679  .00001432  00000+0  11220-3 0  9999
2 21422  82.4969  51.6972 0011064 313.7888  46.2420 15.00258559868168
SL-14 R/B               
1 21423U 91042B   26101.64245439  .00000315  00000+0  36798-4 0  9990
2 21423  82.4960 189.2913 0018247 129.8958 230.3864 14.81863609857956
ERS-1                   
1 21574U 91050A   26101.78426965  .00000247  00000+0  93405-4 0  9998
2 21574  98.7849 120.8473 0033124 103.8086 256.6790 14.39475943820497
ARIANE 40 R/B           
1 21610U 91050F   26101.75651427  .00000218  00000+0  77578-4 0  9990
2 21610  98.1946 152.7407 0002636 359.2539   0.8647 14.42918863823765
INTERCOSMOS 25          
1 21819U 91086A   26101.83980311  .00000833  00000+0  15750-3 0  9992
2 21819  82.5995 289.9620 1486061  45.4996 325.8283 12.12110359500708
SL-8 R/B                
1 21876U 92008B   26101.65241647  .00000036  00000+0  20871-4 0  9998
2 21876  82.9257 243.2533 0035474  44.3700 326.2530 13.75970147713952
SL-8 R/B                
1 21938U 92020B   26101.81117707 -.00000018  00000+0 -34454-4 0  9992
2 21938  82.9279 129.1649 0028494 202.6965 330.4010 13.75550234705683
USA 81                  
1 21949U 92023A   26101.77123706  .00000156  00000+0  50503-4 0  9992
2 21949  85.0034 112.3457 0001294  78.4538 281.6800 14.32379146 99521
COSMOS 2219             
1 22219U 92076A   26101.83864905  .00000023  00000+0  36888-4 0  9994
2 22219  71.0591 308.7750 0017446 155.6174 204.5778 14.14088178723065
SL-16 R/B               
1 22220U 92076B   26101.82967208  .00000270  00000+0  15835-3 0  9997
2 22220  70.9975 118.5668 0011317  36.3236 136.3937 14.16864499726524
COSMOS 2221             
1 22236U 92080A   26101.80714344  .00001682  00000+0  14607-3 0  9992
2 22236  82.5024 247.3482 0015653  82.6686 277.6314 14.96351688785746
SL-16 R/B               
1 22285U 92093B   26101.81303727 -.00000208  00000+0 -81863-4 0  9994
2 22285  71.0205 294.7320 0006558 261.0263  99.0118 14.15454323717844
COSMOS 2228             
1 22286U 92094A   26101.80125993  .00001709  00000+0  14446-3 0  9999
2 22286  82.5205 205.6097 0017857 186.0951 174.0057 14.97371376781010
SL-16 R/B               
1 22566U 93016B   26101.85680441  .00000142  00000+0  97137-4 0  9993
2 22566  71.0066 145.5244 0012604 272.2782  87.6898 14.15313228706864
COSMOS 2242             
1 22626U 93024A   26101.46364538  .00001858  00000+0  16009-3 0  9995
2 22626  82.5186 235.3605 0016041 190.3501 169.7394 14.96704328785299
