[{"OBJECT_NAME":"SL-8 R/B","OBJECT_ID":"1991-006B","EPOCH":"2026-04-11T12:56:13.806816","MEAN_MOTION":13.77500301,"ECCENTRICITY":0.0021136,"INCLINATION":82.942,"RA_OF_ASC_NODE":145.6203,"ARG_OF_PERICENTER":305.2502,"MEAN_ANOMALY":167.3613,"EPHEMERIS_TYPE":0,"CLASSIFICATION_TYPE":"U","NORAD_CAT_ID":21088,"ELEMENT_SET_NO":999,"REV_AT_EPOCH":76859,"BSTAR":9.6791e-5,"MEAN_MOTION_DOT":1.11e-6,"MEAN_MOTION_DDOT":0},{"OBJECT_NAME":"OKEAN-3","OBJECT_ID":"1991-039A","EPOCH":"2026-04-11T12:36:53.339040","MEAN_MOTION":15.05006193,"ECCENTRICITY":0.0013572,"INCLINATION":82.5156,"RA_OF_ASC_NODE":305.0222,"ARG_OF_PERICENTER":214.396,"MEAN_ANOMALY":145.639,"EPHEMERIS_TYPE":0,"CLASSIFICATION_TYPE":"U","NORAD_CAT_ID":21397,"ELEMENT_SET_NO":999,"REV_AT_EPOCH":86997,"BSTAR":0.00012736,"MEAN_MOTION_DOT":1.838e-5,"MEAN_MOTION_DDOT":0},{"OBJECT_NAME":"COSMOS 2151","OBJECT_ID":"1991-042A","EPOCH":"2026-04-11T20:00:09.802656","MEAN_MOTION":15.00258559,"ECCENTRICITY":0.0011064,"INCLINATION":82.4969,"RA_OF_ASC_NODE":51.6972,"ARG_OF_PERICENTER":313.7888,"MEAN_ANOMALY":46.242,"EPHEMERIS_TYPE":0,"CLASSIFICATION_TYPE":"U","NORAD_CAT_ID":21422,"ELEMENT_SET_NO":999,"REV_AT_EPOCH":86816,"BSTAR":0.0001122,"MEAN_MOTION_DOT":1.432e-5,"MEAN_MOTION_DDOT":0},{"OBJECT_NAME":"SL-14 R/B","OBJECT_ID":"1991-042B","EPOCH":"2026-04-11T15:25:08.059296","MEAN_MOTION":14.81863609,"ECCENTRICITY":0.0018247,"INCLINATION":82.496,"RA_OF_ASC_NODE":189.2913,"ARG_OF_PERICENTER":129.8958,"MEAN_ANOMALY":230.3864,"EPHEMERIS_TYPE":0,"CLASSIFICATION_TYPE":"U","NORAD_CAT_ID":21423,"ELEMENT_SET_NO":999,"REV_AT_EPOCH":85795,"BSTAR":3.6798e-5,"MEAN_MOTION_DOT":3.15e-6,"MEAN_MOTION_DDOT":0},{"OBJECT_NAME":"ERS-1","OBJECT_ID":"1991-050A","EPOCH":"2026-04-11T18:49:20.897760","MEAN_MOTION":14.39475943,"ECCENTRICITY":0.0033124,"INCLINATION":98.7849,"RA_OF_ASC_NODE":120.8473,"ARG_OF_PERICENTER":103.8086,"MEAN_ANOMALY":256.679,"EPHEMERIS_TYPE":0,"CLASSIFICATION_TYPE":"U","NORAD_CAT_ID":21574,"ELEMENT_SET_NO":999,"REV_AT_EPOCH":82049,"BSTAR":9.3405e-5,"MEAN_MOTION_DOT":2.47e-6,"MEAN_MOTION_DDOT":0},{"OBJECT_NAME":"ARIANE 40 R/B","OBJECT_ID":"1991-050F","EPOCH":"2026-04-11T18:09:22.832928","MEAN_MOTION":14.42918863,"ECCENTRICITY":0.0002636,"INCLINATION":98.1946,"RA_OF_ASC_NODE":152.7407,"ARG_OF_PERICENTER":359.2539,"MEAN_ANOMALY":0.8647,"EPHEMERIS_TYPE":0,"CLASSIFICATION_TYPE":"U","NORAD_CAT_ID":21610,"ELEMENT_SET_NO":999,"REV_AT_EPOCH":82376,"BSTAR":7.7578e-5,"MEAN_MOTION_DOT":2.18e-6,"MEAN_MOTION_DDOT":0},{"OBJECT_NAME":"INTERCOSMOS 25","OBJECT_ID":"1991-086A","EPOCH":"2026-04-11T20:09:18.988704","MEAN_MOTION":12.12110359,"ECCENTRICITY":0.1486061,"INCLINATION":82.5995,"RA_OF_ASC_NODE":289.962,"ARG_OF_PERICENTER":45.4996,"MEAN_ANOMALY":325.8283,"EPHEMERIS_TYPE":0,"CLASSIFICATION_TYPE":"U","NORAD_CAT_ID":21819,"ELEMENT_SET_NO":999,"REV_AT_EPOCH":50070,"BSTAR":0.0001575,"MEAN_MOTION_DOT":8.33e-6,"MEAN_MOTION_DDOT":0},{"OBJECT_NAME":"SL-8 R/B","OBJECT_ID":"1992-008B","EPOCH":"2026-04-11T15:39:28.783008","MEAN_MOTION":13.75970147,"ECCENTRICITY":0.0035474,"INCLINATION":82.9257,"RA_OF_ASC_NODE":243.2533,"ARG_OF_PERICENTER":44.37,"MEAN_ANOMALY":326.253,"EPHEMERIS_TYPE":0,"CLASSIFICATION_TYPE":"U","NORAD_CAT_ID":21876,"ELEMENT_SET_NO":999,"REV_AT_EPOCH":71395,"BSTAR":2.0871e-5,"MEAN_MOTION_DOT":3.6e-7,"MEAN_MOTION_DDOT":0},{"OBJECT_NAME":"SL-8 R/B","OBJECT_ID":"1992-020B","EPOCH":"2026-04-11T19:28:05.698848","MEAN_MOTION":13.75550234,"ECCENTRICITY":0.0028494,"INCLINATION":82.9279,"RA_OF_ASC_NODE":129.1649,"ARG_OF_PERICENTER":202.6965,"MEAN_ANOMALY":330.401,"EPHEMERIS_TYPE":0,"CLASSIFICATION_TYPE":"U","NORAD_CAT_ID":21938,"ELEMENT_SET_NO":999,"REV_AT_EPOCH":70568,"BSTAR":-3.4454e-5,"MEAN_MOTION_DOT":-1.8e-7,"MEAN_MOTION_DDOT":0},{"OBJECT_NAME":"USA 81","OBJECT_ID":"1992-023A","EPOCH":"2026-04-11T18:30:34.881984","MEAN_MOTION":14.32379146,"ECCENTRICITY":0.0001294,"INCLINATION":85.0034,"RA_OF_ASC_NODE":112.3457,"ARG_OF_PERICENTER":78.4538,"MEAN_ANOMALY":281.68,"EPHEMERIS_TYPE":0,"CLASSIFICATION_TYPE":"U","NORAD_CAT_ID":21949,"ELEMENT_SET_NO":999,"REV_AT_EPOCH":9952,"BSTAR":5.0503e-5,"MEAN_MOTION_DOT":1.56e-6,"MEAN_MOTION_DDOT":0},{"OBJECT_NAME":"COSMOS 2219","OBJECT_ID":"1992-076A","EPOCH":"2026-04-11T20:07:39.277920","MEAN_MOTION":14.14088178,"ECCENTRICITY":0.0017446,"INCLINATION":71.0591,"RA_OF_ASC_NODE":308.775,"ARG_OF_PERICENTER":155.6174,"MEAN_ANOMALY":204.5778,"EPHEMERIS_TYPE":0,"CLASSIFICATION_TYPE":"U","NORAD_CAT_ID":22219,"ELEMENT_SET_NO":999,"REV_AT_EPOCH":72306,"BSTAR":3.6888e-5,"MEAN_MOTION_DOT":2.3e-7,"MEAN_MOTION_DDOT":0},{"OBJECT_NAME":"SL-16 R/B","OBJECT_ID":"1992-076B","EPOCH":"2026-04-11T19:54:43.667712","MEAN_MOTION":14.16864499,"ECCENTRICITY":0.0011317,"INCLINATION":70.9975,"RA_OF_ASC_NODE":118.5668,"ARG_OF_PERICENTER":36.3236,"MEAN_ANOMALY":136.3937,"EPHEMERIS_TYPE":0,"CLASSIFICATION_TYPE":"U","NORAD_CAT_ID":22220,"ELEMENT_SET_NO":999,"REV_AT_EPOCH":72652,"BSTAR":0.00015835,"MEAN_MOTION_DOT":2.7e-6,"MEAN_MOTION_DDOT":0},{"OBJECT_NAME":"COSMOS 2221","OBJECT_ID":"1992-080A","EPOCH":"2026-04-11T19:22:17.193216","MEAN_MOTION":14.96351688,"ECCENTRICITY":0.0015653,"INCLINATION":82.5024,"RA_OF_ASC_NODE":247.3482,"ARG_OF_PERICENTER":82.6686,"MEAN_ANOMALY":277.6314,"EPHEMERIS_TYPE":0,"CLASSIFICATION_TYPE":"U","NORAD_CAT_ID":22236,"ELEMENT_SET_NO":999,"REV_AT_EPOCH":78574,"BSTAR":0.00014607,"MEAN_MOTION_DOT":1.682e-5,"MEAN_MOTION_DDOT":0},{"OBJECT_NAME":"SL-16 R/B","OBJECT_ID":"1992-093B","EPOCH":"2026-04-11T19:30:46.420128","MEAN_MOTION":14.15454323,"ECCENTRICITY":0.0006558,"INCLINATION":71.0205,"RA_OF_ASC_NODE":294.732,"ARG_OF_PERICENTER":261.0263,"MEAN_ANOMALY":99.0118,"EPHEMERIS_TYPE":0,"CLASSIFICATION_TYPE":"U","NORAD_CAT_ID":22285,"ELEMENT_SET_NO":999,"REV_AT_EPOCH":71784,"BSTAR":-8.1863e-5,"MEAN_MOTION_DOT":-2.08e-6,"MEAN_MOTION_DDOT":0},{"OBJECT_NAME":"COSMOS 2228","OBJECT_ID":"1992-094A","EPOCH":"2026-04-11T19:13:48.857952","MEAN_MOTION":14.97371376,"ECCENTRICITY":0.0017857,"INCLINATION":82.5205,"RA_OF_ASC_NODE":205.6097,"ARG_OF_PERICENTER":186.0951,"MEAN_ANOMALY":174.0057,"EPHEMERIS_TYPE":0,"CLASSIFICATION_TYPE":"U","NORAD_CAT_ID":22286,"ELEMENT_SET_NO":999,"REV_AT_EPOCH":78101,"BSTAR":0.00014446,"MEAN_MOTION_DOT":1.709e-5,"MEAN_MOTION_DDOT":0},{"OBJECT_NAME":"SL-16 R/B","OBJECT_ID":"1993-016B","EPOCH":"2026-04-11T20:33:47.901024","MEAN_MOTION":14.15313228,"ECCENTRICITY":0.0012604,"INCLINATION":71.0066,"RA_OF_ASC_NODE":145.5244,"ARG_OF_PERICENTER":272.2782,"MEAN_ANOMALY":87.6898,"EPHEMERIS_TYPE":0,"CLASSIFICATION_TYPE":"U","NORAD_CAT_ID":22566,"ELEMENT_SET_NO":999,"REV_AT_EPOCH":70686,"BSTAR":9.7137e-5,"MEAN_MOTION_DOT":1.42e-6,"MEAN_MOTION_DDOT":0},{"OBJECT_NAME":"COSMOS 2242","OBJECT_ID":"1993-024A","EPOCH":"2026-04-11T11:07:38.960832","MEAN_MOTION":14.96704328,"ECCENTRICITY":0.0016041,"INCLINATION":82.5186,"RA_OF_ASC_NODE":235.3605,"ARG_OF_PERICENTER":190.3501,"MEAN_ANOMALY":169.7394,"EPHEMERIS_TYPE":0,"CLASSIFICATION_TYPE":"U","NORAD_CAT_ID":22626,"ELEMENT_SET_NO":999,"REV_AT_EPOCH":78529,"BSTAR":0.00016009,"MEAN_MOTION_DOT":1.858e-5,"MEAN_MOTION_DDOT":0}]
